{"type":"FeatureCollection","features":[{"type":"Feature","geometry":{"type":"Polygon","coordinates":[[[-121.4959368,38.5806573],[-121.49543449999999,38.58026625],[-121.4952043,38.5798959],[-121.49515099999999,38.579882299999994],[-121.49512125000001,38.57987475],[-121.49508555,38.57986525],[-121.4950728,38.5798336],[-121.49459625,38.57944515],[-121.49461225,38.579407],[-121.49463180000001,38.57936035],[-121.4946386,38.5793431],[-121.49464825,38.57931865],[-121.49465615,38.5792986],[-121.49414765,38.57890755],[-121.49409645,38.5788936],[-121.49405469999999,38.578882300000004],[-121.49401525,38.57887155],[-121.4939996,38.5788673],[-121.4935558,38.5787794],[-121.4936219,38.578334350000006],[-121.49365075,38.5782011],[-121.49330345,38.577837200000005],[-121.49336765,38.5776764],[-121.49338725,38.577631249999996],[-121.493392,38.577396449999995],[-121.49327919999999,38.5773676],[-121.49316619999999,38.5773374],[-121.493146,38.5773339],[-121.49311755,38.5773256],[-121.49264765000001,38.57720185],[-121.49263965,38.57690615],[-121.49272625,38.57672755],[-121.4927373,38.57670205],[-121.49274890000001,38.5766737],[-121.49296575,38.57616535],[-121.4923914,38.575950750000004],[-121.49206885000001,38.5762101],[-121.49205725,38.576238450000005],[-121.4920462,38.57626395],[-121.4919596,38.576442549999996],[-121.49173285,38.576383750000005],[-121.4916383,38.57641485],[-121.49162485,38.57633135],[-121.49155495,38.576299399999996],[-121.4914176,38.5762475],[-121.49147115,38.5761272],[-121.49156165,38.57610755],[-121.49145865,38.5759367],[-121.4912447,38.5760218],[-121.49132184999999,38.57609645],[-121.4912683,38.57621675],[-121.49123555,38.57630485],[-121.49115839999999,38.5762302],[-121.49114875,38.576248449999994],[-121.49085615,38.5763866],[-121.49078295,38.57655604999999],[-121.49099515,38.5768297],[-121.4910332,38.5772082],[-121.49087800000001,38.577283449999996],[-121.49077615,38.57725755],[-121.4905268,38.57707015],[-121.49055325,38.5770391],[-121.49034105,38.576765449999996],[-121.4902787,38.576748249999994],[-121.49021965,38.57673465],[-121.490159,38.576715],[-121.49005535,38.57678555],[-121.48951925,38.5767919],[-121.48911229999999,38.5772714],[-121.48888425,38.577147350000004],[-121.488872,38.5771527],[-121.4888565,38.5771595],[-121.48870984999999,38.57737505],[-121.48857770000001,38.57737575],[-121.48853195,38.577369250000004],[-121.48851669999999,38.577366],[-121.4881743,38.5772749],[-121.48809940000001,38.57744895],[-121.48807645,38.577504],[-121.48800455,38.577574],[-121.4877524,38.57815195],[-121.48737245000001,38.5780509],[-121.48695194999999,38.57827],[-121.4866715,38.5781924],[-121.48626435,38.57808405],[-121.4861469,38.5783558],[-121.4864414,38.57874175],[-121.4865683,38.579085],[-121.48647844999999,38.579293899999996],[-121.4863127,38.5793147],[-121.4862014,38.5792856],[-121.4858499,38.579492099999996],[-121.48583930000001,38.5795196],[-121.48582715,38.5795483],[-121.48585145,38.579829149999995],[-121.48595525,38.57985675],[-121.4860024,38.5800274],[-121.48612410000001,38.580177199999994],[-121.48605145,38.58034035],[-121.48617340000001,38.5804957],[-121.48640625,38.58081465],[-121.48639510000001,38.58084085],[-121.4863876,38.58085845],[-121.4863665,38.5809079],[-121.4864686,38.5812444],[-121.48668925,38.58129975],[-121.48675285,38.58131675],[-121.4868175,38.5813337],[-121.48687145,38.58134835],[-121.48692639999999,38.58136275],[-121.48698934999999,38.58163175],[-121.4871074,38.581770950000006],[-121.48723505000001,38.581904],[-121.48716605,38.58228425],[-121.48728399999999,38.58257265],[-121.48754425,38.5827427],[-121.4875998,38.58275725],[-121.48761655,38.582761700000006],[-121.48765689999999,38.5827727],[-121.4877203,38.582789899999995],[-121.48776705,38.582801950000004],[-121.4877829,38.5828061],[-121.48797975,38.58280355],[-121.48806905000001,38.582827800000004],[-121.4881847,38.58324035],[-121.4881173,38.583396449999995],[-121.48801755,38.58362495],[-121.4880146,38.5836324],[-121.48799700000001,38.5836771],[-121.4879774,38.583722699999996],[-121.48819845,38.58409075],[-121.48847090000001,38.58402585],[-121.4885163,38.5839192],[-121.48854324999999,38.58392655],[-121.48866774999999,38.58395925000001],[-121.48875749999999,38.58391675],[-121.48880365,38.58395915],[-121.4888545,38.58400975],[-121.48891255,38.5840256],[-121.48895694999999,38.5840381],[-121.48897295,38.584032949999994],[-121.48904164999999,38.5840129],[-121.4891972,38.584085099999996],[-121.48919755,38.5840731],[-121.48943059999999,38.584013049999996],[-121.4895309,38.5837815],[-121.48957295,38.58350945],[-121.48967295,38.583282249999996],[-121.48975095,38.583102],[-121.48975405,38.583094849999995],[-121.48976400000001,38.5830718],[-121.4900679,38.58310995],[-121.4901382,38.583143050000004],[-121.4902431,38.5832245],[-121.49022794999999,38.58345825],[-121.4903365,38.583487250000005],[-121.49047415000001,38.58352305],[-121.4905187,38.58353495],[-121.4905323,38.583538450000006],[-121.49057020000001,38.58354835],[-121.4906433,38.583567849999994],[-121.4906926,38.5835806],[-121.49070705,38.5835845],[-121.4908401,38.58360365],[-121.4909313,38.583454399999994],[-121.4910746,38.583492899999996],[-121.49116245,38.5835846],[-121.4912753,38.5835939],[-121.49139679999999,38.5833605],[-121.49162375,38.583299],[-121.4917829,38.583254249999996],[-121.49186825000001,38.58327765],[-121.49196195,38.58330315],[-121.4920359,38.583282249999996],[-121.49217025,38.5833188],[-121.49221005,38.58336915],[-121.4925617,38.583124350000006],[-121.4923025,38.58299465],[-121.49223190000001,38.58297655],[-121.49209755000001,38.58294],[-121.49210930000001,38.58290855],[-121.49235325000001,38.58269695],[-121.49242385,38.58271505],[-121.49269484999999,38.5828188],[-121.49295715,38.58295065],[-121.4930595,38.582987349999996],[-121.49315,38.582781350000005],[-121.49317504999999,38.582726],[-121.4932766,38.58275295],[-121.4935247,38.582756599999996],[-121.4935282,38.5827485],[-121.49354515,38.582709449999996],[-121.4936734,38.58256825],[-121.4938728,38.58196045],[-121.49414924999999,38.582134800000006],[-121.4941756,38.5821417],[-121.494287,38.582170399999995],[-121.49434295,38.582185100000004],[-121.49443755,38.582260500000004],[-121.4947943,38.58230125],[-121.4950262,38.581989899999996],[-121.49504095,38.58194675],[-121.49505669999999,38.58190055],[-121.4951479,38.58169445],[-121.4955553,38.5812448],[-121.49566569999999,38.58127415],[-121.49569455,38.58120915],[-121.49581615,38.580934549999995],[-121.4959368,38.5806573]]]},"properties":{"bucket":0,"copyrights":["GraphHopper","OpenStreetMap contributors"]}},{"type":"Feature","geometry":{"type":"Polygon","coordinates":[[[-121.50105615000001,38.58339425],[-121.50102525,38.58338655],[-121.50111295,38.583066349999996],[-121.50094715,38.58288195],[-121.50073225,38.5828776],[-121.5005688,38.5828329],[-121.50051915,38.5828193],[-121.50034145000001,38.582841599999995],[-121.5000314,38.5824584],[-121.5000178,38.5824547],[-121.4999802,38.58244035],[-121.49994715,38.58242775],[-121.49992995,38.58242115],[-121.4999094,38.5824154],[-121.49998235,38.58219305],[-121.50002649999999,38.58214555],[-121.50004369999999,38.58215215],[-121.50006175,38.5821573],[-121.5000948,38.5821699],[-121.5001206,38.58211],[-121.50014469999999,38.582053200000004],[-121.5001795,38.58206255],[-121.50022555,38.582074950000006],[-121.50026414999999,38.5820854],[-121.5004212,38.58212865],[-121.5004444,38.58207265],[-121.50053725000001,38.58185235],[-121.5002954,38.58180435],[-121.5002568,38.5817939],[-121.50022200000001,38.581784549999995],[-121.50020435,38.581779749999995],[-121.50016025,38.58176785],[-121.5001516,38.5817434],[-121.50013145,38.58174145],[-121.5001815,38.58143255],[-121.5001513,38.58134725],[-121.50023730000001,38.5812559],[-121.50033275,38.5812353],[-121.50037420000001,38.581095399999995],[-121.50042125,38.5810184],[-121.50042830000001,38.5809681],[-121.5003917,38.580825149999995],[-121.50037695,38.58082175],[-121.500387,38.58073365],[-121.50039985000001,38.58071165],[-121.5003869,38.5806096],[-121.50017629999999,38.58073845],[-121.50013025,38.5800869],[-121.50005635,38.579753749999995],[-121.49983470000001,38.57965025],[-121.499788,38.579583299999996],[-121.49978915,38.57958035],[-121.49980264999999,38.57955054999999],[-121.49975415,38.5794893],[-121.49973595,38.57943685],[-121.4997797,38.579339250000004],[-121.49977005,38.5793367],[-121.4998132,38.5792404],[-121.4996018,38.5792858],[-121.49944875,38.578678350000004],[-121.4994952,38.5784308],[-121.49950795000001,38.57841585],[-121.49951275000001,38.578410250000005],[-121.4995189,38.578395900000004],[-121.49899035,38.57822655],[-121.49897279999999,38.5782286],[-121.49893094999999,38.5781789],[-121.49893574999999,38.578148999999996],[-121.4989121,38.5780613],[-121.49883829999999,38.5780749],[-121.49879325,38.5780287],[-121.4984903,38.5778342],[-121.498503,38.577803700000004],[-121.49851155,38.577783249999996],[-121.49853895000001,38.5777226],[-121.4985449,38.57770895],[-121.49874455,38.57742495],[-121.4987298,38.5772829],[-121.49818400000001,38.5771335],[-121.49801285000001,38.5768358],[-121.497995,38.576830900000004],[-121.49783665000001,38.576804949999996],[-121.4977353,38.57677435],[-121.4977309,38.5767623],[-121.49727705000001,38.5764806],[-121.4973,38.576428],[-121.49711385,38.5760776],[-121.49709295,38.57601825],[-121.49720744999999,38.57575255],[-121.4973559,38.5755237],[-121.49772205,38.57535485],[-121.49723695,38.57517],[-121.49719065,38.575165850000005],[-121.49715735000001,38.575155699999996],[-121.49676685,38.5745062],[-121.49614550000001,38.57431685],[-121.49637375,38.5737932],[-121.49632980000001,38.5737347],[-121.49629519999999,38.573725],[-121.49627670000001,38.5737675],[-121.49604845,38.57429115],[-121.49602680000001,38.574285450000005],[-121.4959926,38.57427625],[-121.49544235,38.57412685],[-121.49493465,38.57365595],[-121.49487110000001,38.573638349999996],[-121.4948186,38.5736238],[-121.49477055,38.573611],[-121.49472475,38.5732922],[-121.49468540000001,38.573227700000004],[-121.49469554999999,38.57320555],[-121.494705,38.5731829],[-121.49471265,38.5731653],[-121.4948131,38.5731927],[-121.4948751,38.573209000000006],[-121.49487755000001,38.573202800000004],[-121.49488124999999,38.5731943],[-121.4949831,38.57309735],[-121.4949962,38.5728431],[-121.4949949,38.57270785],[-121.49501545000001,38.57265485],[-121.49491685000001,38.57243825],[-121.4948947,38.57243225],[-121.4947334,38.57227745],[-121.494634,38.572069],[-121.49440100000001,38.571642600000004],[-121.49438705,38.571638],[-121.49434215,38.5716246],[-121.49420334999999,38.57155245],[-121.494158,38.57154045],[-121.4941448,38.571536949999995],[-121.4941303,38.57152275],[-121.49404365000001,38.5714317],[-121.49372865000001,38.5714407],[-121.4936515,38.5716206],[-121.4936462,38.5716336],[-121.49344275,38.5717885],[-121.493417,38.571802149999996],[-121.49322875,38.571883],[-121.4931806,38.571912100000006],[-121.49308405,38.5720704],[-121.4930642,38.57211805],[-121.49303645,38.572185250000004],[-121.49308740000001,38.57233025],[-121.4930445,38.57243055],[-121.49285755,38.572686950000005],[-121.49275815,38.57265985],[-121.49265645,38.572633550000006],[-121.49255365,38.5726042],[-121.4924649,38.5724248],[-121.4923266,38.57238905],[-121.49231155,38.57238515],[-121.49225945,38.572372200000004],[-121.49208145,38.572325],[-121.4920415,38.572314199999994],[-121.49202755,38.57231045],[-121.49184555,38.5722601],[-121.49184155,38.5722692],[-121.491839,38.57227495],[-121.491829,38.5722974],[-121.49171899999999,38.572267],[-121.49141259999999,38.572407600000005],[-121.49134635,38.5726999],[-121.49068355,38.5725202],[-121.4907831,38.57229085],[-121.4908032,38.5722454],[-121.4908226,38.572199999999995],[-121.490768,38.5721577],[-121.4907388,38.5721327],[-121.49071665,38.57214395],[-121.4907058,38.57216885],[-121.4906857,38.5722143],[-121.49063465,38.5722006],[-121.49043,38.571958550000005],[-121.49025625,38.5720545],[-121.49020775,38.57229755],[-121.4898547,38.57255565],[-121.48973670000001,38.5728267],[-121.4890735,38.572650249999995],[-121.48886325000001,38.572686649999994],[-121.48863295000001,38.57284009999999],[-121.48851105,38.573120149999994],[-121.48817525000001,38.5730297],[-121.48803835000001,38.572995250000005],[-121.4879284,38.5729664],[-121.4877166,38.5729131],[-121.4875994,38.57318475],[-121.4873129,38.57327715],[-121.48705685,38.573208750000006],[-121.48684270000001,38.57328665],[-121.4867988,38.57327495],[-121.48640420000001,38.573473],[-121.4863785,38.5735327],[-121.48662885,38.5738033],[-121.4867953,38.57366465],[-121.48683919999999,38.57367635],[-121.48700074999999,38.573719350000005],[-121.48688185,38.5739929],[-121.48681435,38.574151650000005],[-121.48672525,38.57435635],[-121.48662630000001,38.57433625],[-121.48634215000001,38.5743004],[-121.4861046,38.57452825],[-121.48606215000001,38.57457875],[-121.48604474999999,38.5745955],[-121.48593185,38.574605],[-121.48577985,38.57443845],[-121.48578069999999,38.57442505],[-121.48560570000001,38.574122149999994],[-121.48554815,38.574106099999995],[-121.4855383,38.5741033],[-121.48549015,38.5740974],[-121.48543365,38.574083099999996],[-121.48538425000001,38.5740794],[-121.48537055,38.574075699999995],[-121.48516129999999,38.574039150000004],[-121.48506624999999,38.57426125],[-121.48506225,38.5742706],[-121.48504785,38.574304999999995],[-121.48502859999999,38.574349999999995],[-121.4850094,38.57439065],[-121.48500469999999,38.574401699999996],[-121.48473425,38.5745931],[-121.4844382,38.574836000000005],[-121.4841477,38.57497815],[-121.48407764999999,38.5749595],[-121.4839207,38.57491775],[-121.4838082,38.5751784],[-121.48377965,38.5752429],[-121.4838266,38.5753808],[-121.48343015,38.575474099999994],[-121.4828099,38.575324699999996],[-121.48244679999999,38.57553365],[-121.48226245,38.575788849999995],[-121.4821503,38.576068899999996],[-121.482344,38.576337249999995],[-121.4824616,38.57646035],[-121.48257584999999,38.57680285],[-121.48261515,38.5768737],[-121.48259250000001,38.576929699999994],[-121.4826663,38.57720005],[-121.48289535,38.577501850000004],[-121.48303885,38.5777421],[-121.48301649999999,38.5780399],[-121.48291094999999,38.5780118],[-121.4827636,38.57807525],[-121.4825996,38.57793185],[-121.48264165,38.577841750000005],[-121.48249815,38.5776015],[-121.48199389999999,38.57765195],[-121.48205949999999,38.57778375],[-121.48201745,38.57787385],[-121.4819726,38.5779722],[-121.4818544,38.57823995],[-121.48177635,38.5782716],[-121.48140810000001,38.5781201],[-121.48122914999999,38.57813025],[-121.48104814999999,38.57813515],[-121.48086265,38.578088449999996],[-121.48081160000001,38.57820585],[-121.4807845,38.5781987],[-121.48077365,38.57822335],[-121.48073115,38.57823705],[-121.4806384,38.5783653],[-121.4806341,38.57836415],[-121.4806112,38.5783581],[-121.48051405000001,38.5784314],[-121.4804045,38.5783485],[-121.48021940000001,38.578353699999994],[-121.48012,38.578578300000004],[-121.48031645,38.57889015],[-121.48035105,38.57889935],[-121.48037550000001,38.57890605],[-121.4804215,38.578946349999995],[-121.48048,38.578962399999995],[-121.48051125,38.57904255],[-121.4808338,38.578709599999996],[-121.48091249999999,38.5786317],[-121.48109335,38.57852575],[-121.4811929,38.578552099999996],[-121.48158205,38.5786562],[-121.48148265,38.5788821],[-121.4813813,38.5791125],[-121.4809592,38.5794191],[-121.48082174999999,38.5797371],[-121.48072485,38.57996125],[-121.4811758,38.58033785000001],[-121.48129275,38.5803693],[-121.48135675,38.58038675],[-121.4814113,38.5804016],[-121.48185915,38.580775],[-121.48236645,38.58101225],[-121.48240440000001,38.581073],[-121.48234575000001,38.581358800000004],[-121.48228655,38.581343200000006],[-121.4822297,38.5813281],[-121.48168240000001,38.5811828],[-121.48158459999999,38.581407999999996],[-121.4820323,38.5817841],[-121.48209145,38.58179955],[-121.4821483,38.58181465],[-121.482208,38.581831],[-121.4822672,38.5818466],[-121.48241075,38.58188475],[-121.48241005,38.5821921],[-121.48239095,38.582241499999995],[-121.4824722,38.582619449999996],[-121.48257535,38.5826471],[-121.48283435,38.58278435],[-121.4827622,38.582949049999996],[-121.4827054,38.583077849999995],[-121.48288655,38.58323565],[-121.4829504,38.5832527],[-121.48301624999999,38.583270299999995],[-121.48306769999999,38.583284],[-121.48311799999999,38.5832979],[-121.48321709999999,38.5833241],[-121.4832517,38.58338085],[-121.48342249999999,38.583728199999996],[-121.48340065,38.58377795],[-121.4833801,38.5838284],[-121.48361395,38.584145050000004],[-121.4836637,38.584411599999996],[-121.4837245,38.5846823],[-121.48377959999999,38.58469705],[-121.48378975,38.584699900000004],[-121.48384645,38.584715849999995],[-121.4839083,38.584732349999996],[-121.48396985,38.58474865],[-121.484451,38.5849264],[-121.4849025,38.58504575],[-121.48490029999999,38.58530045],[-121.4848949,38.58533595],[-121.4849203,38.5853973],[-121.48494565,38.5854761],[-121.4849309,38.5854965],[-121.48484295,38.585697100000004],[-121.48449755,38.5858588],[-121.4846854,38.5862111],[-121.48492025,38.586274450000005],[-121.48515295,38.586639399999996],[-121.4852442,38.5867254],[-121.48533459999999,38.5868438],[-121.48533125,38.5868521],[-121.48539295,38.58704005],[-121.4855022,38.58727125],[-121.48556465,38.58741965],[-121.48563859999999,38.58743935],[-121.4862129,38.5875958],[-121.4861769,38.58768085],[-121.4862665,38.587993999999995],[-121.48689245,38.5885494],[-121.4869372,38.5885612],[-121.4869814,38.5885732],[-121.48690585,38.588810300000006],[-121.4867949,38.588952250000006],[-121.4868012,38.58898885],[-121.487133,38.58986085],[-121.48795635,38.589528900000005],[-121.48864,38.5897157],[-121.4888143,38.588182450000005],[-121.48879335000001,38.5881631],[-121.48879289999999,38.58813725],[-121.48889059999999,38.5879125],[-121.48903064999999,38.588075],[-121.48905205,38.5881202],[-121.4891727,38.5881186],[-121.48919724999999,38.58806685],[-121.4892385,38.58797195],[-121.489391,38.588013149999995],[-121.48957725,38.5879652],[-121.48976175,38.5879057],[-121.48983565,38.5879286],[-121.48987685,38.58792215],[-121.48999895,38.5879771],[-121.49003884999999,38.58794795],[-121.49010050000001,38.58795165],[-121.49016805,38.587939750000004],[-121.49027035,38.58770305],[-121.49033829999999,38.5876949],[-121.4903957,38.5877098],[-121.4905142,38.5877126],[-121.4906177,38.587737149999995],[-121.49104170000001,38.587540849999996],[-121.49112715000001,38.5873421],[-121.4912214,38.5873677],[-121.4913224,38.58739035],[-121.49142165,38.58741715],[-121.4915184,38.58744205],[-121.491613,38.587467700000005],[-121.4916922,38.5874786],[-121.4917815,38.587434200000004],[-121.4917722,38.5872921],[-121.49179525,38.5872411],[-121.491871,38.58726115],[-121.49193335000001,38.5872776],[-121.4919554,38.587226349999995],[-121.49195639999999,38.5871773],[-121.49198745,38.5871348],[-121.49208114999999,38.5872119],[-121.492087,38.587261850000004],[-121.49206495,38.5873131],[-121.49215434999999,38.5873924],[-121.4923203,38.5872784],[-121.49233745000001,38.587235050000004],[-121.49235250000001,38.5871969],[-121.4924183,38.587150199999996],[-121.492446,38.58709465],[-121.49245185000001,38.58707855],[-121.49246715000001,38.58706315],[-121.49246504999999,38.586972599999996],[-121.49244859999999,38.5869009],[-121.4924742,38.58684145],[-121.4924826,38.586738],[-121.4925109,38.5866408],[-121.49257245,38.58654395],[-121.4926426,38.586432],[-121.4926462,38.58642345],[-121.49292075,38.5864999],[-121.49304555,38.58651935],[-121.4931109,38.5865168],[-121.49319265,38.58648065],[-121.4933254,38.5865303],[-121.49334214999999,38.58653485],[-121.49346084999999,38.5866368],[-121.493566,38.586661],[-121.49357435,38.5866657],[-121.493592,38.5866671],[-121.49369555,38.586573349999995],[-121.49370264999999,38.586526449999994],[-121.49375945,38.58654165],[-121.4938014,38.5865543],[-121.49382125,38.5865493],[-121.4938368,38.58651285],[-121.493856,38.58646815],[-121.49390220000001,38.58647995],[-121.4939173,38.5864452],[-121.4939298,38.5864485],[-121.4941147,38.58653665],[-121.4942157,38.5863064],[-121.49446555,38.586129150000005],[-121.49456515,38.58590215],[-121.49502135,38.5859637],[-121.4950469,38.5860376],[-121.4952635,38.58603375],[-121.4953428,38.58585035],[-121.49536905,38.5858509],[-121.49539924999999,38.5858666],[-121.4954305,38.585816300000005],[-121.4954003,38.5858006],[-121.4954667,38.5857554],[-121.49553455,38.58577285],[-121.4956593,38.58579055],[-121.49566304999999,38.58577985],[-121.49567275,38.5857546],[-121.495723,38.58572695],[-121.4957313,38.58570735],[-121.4958982,38.585689900000006],[-121.4959725,38.58541615],[-121.4961419,38.5850258],[-121.4962616,38.58485305],[-121.49629110000001,38.58484645],[-121.4963255,38.5847668],[-121.49632445,38.584746949999996],[-121.4964083,38.58454275],[-121.49683590000001,38.5845317],[-121.49684185000001,38.58452415],[-121.49685095000001,38.584512700000005],[-121.49694495,38.5843016],[-121.4969545,38.584277400000005],[-121.49695829999999,38.5842678],[-121.49695919999999,38.584265450000004],[-121.4973249,38.5840782],[-121.4975929,38.58420305],[-121.49765590000001,38.5842192],[-121.4976725,38.5842235],[-121.49771385,38.58423645],[-121.4977611,38.58424815],[-121.49778775,38.58424635],[-121.4980156,38.584257],[-121.49858515,38.584487949999996],[-121.49891485,38.5845438],[-121.49910135,38.584190750000005],[-121.4991043,38.584182600000005],[-121.49913015,38.58416265],[-121.4991489,38.58416725],[-121.49915775,38.584221600000006],[-121.4992244,38.5842942],[-121.4992327,38.58427555],[-121.49921565,38.58422465],[-121.49923555,38.584177350000004],[-121.49926034999999,38.5841834],[-121.49929695,38.5841889],[-121.4993206,38.5841947],[-121.4993296,38.58420635],[-121.4995797,38.58426985],[-121.4995833,38.58426125],[-121.49960535,38.5842051],[-121.4996908,38.5840009],[-121.49991075,38.58405665],[-121.49992985,38.584061750000004],[-121.49993935,38.584064299999994],[-121.50031165,38.5840227],[-121.50022580000001,38.58381715],[-121.50022955,38.5837802],[-121.5000536,38.58373325],[-121.49992495000001,38.58364505],[-121.49989260000001,38.58367435],[-121.4998081,38.583703650000004],[-121.49960250000001,38.583612099999996],[-121.4996133,38.5835847],[-121.4995922,38.583417],[-121.4996172,38.58342355],[-121.49964515,38.5834308],[-121.4996654,38.5834361],[-121.4996784,38.58343965],[-121.49976290000001,38.58341035],[-121.49985045,38.583369700000006],[-121.49997909999999,38.5834579],[-121.50027879999999,38.5835358],[-121.50048845,38.5834858],[-121.50068805000001,38.583533349999996],[-121.50085075000001,38.58356445],[-121.50090845,38.5835669],[-121.5009558,38.58357855],[-121.50105465,38.58354855],[-121.50110065000001,38.5835132],[-121.50110330000001,38.58340605],[-121.50107535000001,38.58339905],[-121.50105615000001,38.58339425]]]},"properties":{"bucket":1,"copyrights":["GraphHopper","OpenStreetMap contributors"]}},{"type":"Feature","geometry":{"type":"Polygon","coordinates":[[[-121.50619950000001,38.582472550000006],[-121.5061239,38.58240735],[-121.50615859999999,38.582113050000004],[-121.5061262,38.58210525],[-121.50608795,38.58209595],[-121.50606765,38.58209065],[-121.50597655,38.58190035],[-121.5058956,38.581480600000006],[-121.50590679999999,38.5814551],[-121.50591879999999,38.58137120000001],[-121.50572009999999,38.5813179],[-121.50570655,38.58131375000001],[-121.5056803,38.5813075],[-121.5056312,38.58132285],[-121.505395,38.5811402],[-121.50540085,38.581125799999995],[-121.5054127,38.581094050000004],[-121.50520355,38.58093875],[-121.50521455,38.58090775],[-121.5052192,38.5808955],[-121.50523989999999,38.580788150000004],[-121.50519305,38.580804400000005],[-121.50517015,38.58078225],[-121.5051367,38.580782150000005],[-121.50511259999999,38.58075565],[-121.50507189999999,38.580751899999996],[-121.5049861,38.580341149999995],[-121.50462185,38.5797663],[-121.5048489,38.5796925],[-121.50483435000001,38.57956835],[-121.50498725,38.57940055],[-121.5048364,38.5792653],[-121.50473015,38.57890675],[-121.50460810000001,38.57887465],[-121.50455450000001,38.57885645],[-121.50446115,38.5788351],[-121.50432615,38.57883835],[-121.50397205,38.5782623],[-121.5039756,38.57825295],[-121.50399365,38.578215],[-121.50400935,38.57818195],[-121.50365195,38.57777745],[-121.50364135000001,38.57775555],[-121.5035974,38.5777473],[-121.50355175,38.57773975],[-121.5035376,38.577736],[-121.50352075,38.577512850000005],[-121.50339405,38.57734255],[-121.5030417,38.57673895],[-121.50304815,38.5767261],[-121.5030639,38.5766901],[-121.50307855,38.576657600000004],[-121.5030833,38.5766467],[-121.50310335,38.57660145],[-121.5031318,38.57652895],[-121.50278115,38.57626105],[-121.50274175,38.57625095],[-121.50272815,38.576247300000006],[-121.50270985,38.5762426],[-121.50268435000001,38.5762362],[-121.5026656,38.5762315],[-121.5026331,38.57622335],[-121.50262285,38.5762208],[-121.50261455,38.576218499999996],[-121.5023488,38.576188900000005],[-121.50232460000001,38.5762463],[-121.50170695,38.5760887],[-121.5016916,38.575679],[-121.50192,38.5755654],[-121.50202285,38.57544405],[-121.5021309,38.575367650000004],[-121.50223195000001,38.5752934],[-121.50193005,38.57489205],[-121.50186360000001,38.574874449999996],[-121.50184555,38.57486965],[-121.50181365,38.57486165],[-121.50178455,38.57465485],[-121.50167365,38.5742914],[-121.5016798,38.574158100000005],[-121.5016852,38.574145900000005],[-121.50154760000001,38.57382775],[-121.50147905,38.5738085],[-121.50128745,38.5734809],[-121.50112585,38.57343655],[-121.50111104999999,38.5734329],[-121.50100515,38.573335549999996],[-121.500867,38.57340155],[-121.50081765,38.57338825],[-121.5007808,38.5734717],[-121.50074359999999,38.5734626],[-121.50072165,38.57345685],[-121.50071555,38.5734706],[-121.5005211,38.573445449999994],[-121.50065345,38.5731772],[-121.5006903,38.57309375],[-121.50077354999999,38.57301315],[-121.5008263,38.57283205],[-121.50061765000001,38.572778850000006],[-121.5005062,38.572790100000006],[-121.50025435,38.57272295],[-121.50022475,38.57247265],[-121.5002567,38.5723919],[-121.50026105,38.572381199999995],[-121.50027460000001,38.5723493],[-121.50029190000001,38.572306600000005],[-121.50030770000001,38.572269250000005],[-121.5003097,38.572265400000006],[-121.5003135,38.5722564],[-121.50022435,38.57191225],[-121.5001622,38.57189565],[-121.50014945000001,38.571891699999995],[-121.500102,38.57187965],[-121.50004304999999,38.57186395],[-121.50000309999999,38.5718536],[-121.4999847,38.57184865],[-121.49976570000001,38.5720532],[-121.49976050000001,38.57206505],[-121.49974595,38.572103],[-121.49972410000001,38.572152149999994],[-121.49971289999999,38.57218235],[-121.49970114999999,38.572201699999994],[-121.49961225,38.572412799999995],[-121.49941129999999,38.572068],[-121.4994282,38.57202845],[-121.49945005000001,38.571979299999995],[-121.49957425,38.57173905],[-121.4996,38.571483],[-121.4996101,38.57145995],[-121.49962009999999,38.5714372],[-121.49966405,38.57133675],[-121.49970645,38.57124015],[-121.4996895,38.57106415],[-121.49955489999999,38.570919599999996],[-121.49957624999999,38.57086865],[-121.49959365,38.5708267],[-121.49960665,38.570790099999996],[-121.49956415,38.570690799999994],[-121.49938119999999,38.570423649999995],[-121.4993197,38.570408099999995],[-121.4992543,38.5703891],[-121.49921485,38.57037805],[-121.49919855,38.5703735],[-121.499134,38.57040025],[-121.498687,38.5700204],[-121.49878185,38.56979835],[-121.4988757,38.56957355],[-121.4988822,38.5695594],[-121.49889685,38.5695216],[-121.49891025,38.569493050000005],[-121.49891535,38.56947955],[-121.49893700000001,38.569434],[-121.49895185,38.5694027],[-121.49895710000001,38.5693895],[-121.49851195,38.56900915],[-121.49844715,38.56899325],[-121.49843444999999,38.56899025],[-121.49838015,38.56897345],[-121.49835265,38.56896535],[-121.4983297,38.5689586],[-121.49830524999999,38.5689531],[-121.49829435,38.56895065],[-121.4982824,38.5689469],[-121.49773755000001,38.5688018],[-121.4971853,38.56865615],[-121.49706570000001,38.56874085],[-121.49705370000001,38.5687377],[-121.49699775,38.568723399999996],[-121.496951,38.56871125],[-121.49691734999999,38.568702200000004],[-121.49690484999999,38.568699550000005],[-121.4968387,38.56841915],[-121.4968843,38.568314400000006],[-121.4969802,38.56808865],[-121.4967155,38.56771785],[-121.496732,38.56767825],[-121.49673619999999,38.56766785],[-121.4967403,38.56765915],[-121.4967551,38.567625699999994],[-121.49677025,38.5675907],[-121.49677605,38.567578299999994],[-121.49680995,38.5673331],[-121.49691200000001,38.5671043],[-121.4964604,38.56672825],[-121.49644674999999,38.5667252],[-121.4963963,38.5667125],[-121.49635555,38.5667022],[-121.49634075,38.56669825],[-121.4962869,38.56668385],[-121.49606485000001,38.5665224],[-121.49597575,38.56649855],[-121.4956136,38.567014549999996],[-121.49551439999999,38.56724425],[-121.4955092,38.56725625],[-121.4954939,38.5672907],[-121.49547895,38.5673243],[-121.4954744,38.56733485],[-121.49545384999999,38.567381749999996],[-121.49535695,38.5676067],[-121.49470145,38.5676486],[-121.49467715,38.56742525],[-121.4944542,38.567415600000004],[-121.49443925,38.56741165],[-121.49439035,38.567398499999996],[-121.4943268,38.567381499999996],[-121.49428795,38.5673711],[-121.49427309999999,38.5673671],[-121.49422025,38.567353],[-121.49367305,38.567205200000004],[-121.49357499999999,38.56743095],[-121.49347435,38.567665],[-121.49292475,38.5675181],[-121.49286335,38.56750165],[-121.4928505,38.5674982],[-121.49280125,38.56748555],[-121.49274865000001,38.567471499999996],[-121.4927115,38.56746195],[-121.4926939,38.56745735],[-121.49214255,38.5673102],[-121.492138,38.567620950000006],[-121.4921327,38.56763290000001],[-121.49211875,38.56766535],[-121.4921037,38.56770040000001],[-121.49209915,38.56771105],[-121.49172215,38.5677994],[-121.49170295,38.567845000000005],[-121.49166174999999,38.56794285],[-121.49160025,38.567989499999996],[-121.49142739999999,38.56808624999999],[-121.4914206,38.568102249999995],[-121.4914969,38.56823195],[-121.49154395,38.5683561],[-121.49168845,38.5684126],[-121.49159905,38.5686125],[-121.4915792,38.56865689999999],[-121.49137745,38.5686033],[-121.49133040000001,38.56847915],[-121.49119635,38.56839375],[-121.49125345,38.568260550000005],[-121.49117715,38.56813085],[-121.4911163,38.5681146],[-121.49105555,38.568099450000005],[-121.4910002,38.5680847],[-121.49088585,38.5682015],[-121.49032199999999,38.5682541],[-121.4903173,38.56826485],[-121.49030239999999,38.5682989],[-121.49028115,38.568349749999996],[-121.49026475,38.568387200000004],[-121.4902457,38.56843285],[-121.4902324,38.56860705],[-121.49020105,38.56867905],[-121.48998549999999,38.56884635],[-121.49046390000001,38.569309950000005],[-121.49034424999999,38.5695848],[-121.49022605,38.56985635],[-121.4898236,38.569446],[-121.48931605,38.5690494],[-121.48916425,38.5690235],[-121.48902029999999,38.5689096],[-121.4889484,38.5689345],[-121.4884862,38.5688886],[-121.4883705,38.5691556],[-121.4878302,38.5689871],[-121.4878054,38.56898045],[-121.48775585,38.569009199999996],[-121.4877178,38.569032899999996],[-121.48768405,38.569023900000005],[-121.4876401,38.569044950000006],[-121.4875464,38.56926155],[-121.48751955,38.56925425],[-121.48746245000001,38.569239550000006],[-121.48738885,38.569220650000005],[-121.48705609999999,38.5691721],[-121.48702595,38.569243150000005],[-121.48687330000001,38.5692029],[-121.48656890000001,38.56930505],[-121.4862827,38.5694837],[-121.4862083,38.56965975],[-121.48620375,38.56967055],[-121.48618909999999,38.56970475],[-121.4861799,38.569726849999995],[-121.48617585,38.569736649999996],[-121.48590605,38.57001725],[-121.48585130000001,38.5699917],[-121.4857882,38.56997495],[-121.48555315,38.56988685],[-121.48519985,38.5700967],[-121.48515499999999,38.57020235],[-121.48504639999999,38.570455],[-121.4850366,38.570474450000006],[-121.4844463,38.57050995],[-121.4841972,38.570604349999996],[-121.4841873,38.57062705],[-121.48415395,38.57061825],[-121.48396070000001,38.5706809],[-121.4839279,38.5706719],[-121.48373649999999,38.57061895],[-121.48343915,38.570539749999995],[-121.48333299999999,38.57056235],[-121.4833228,38.5708121],[-121.4833771,38.5709463],[-121.48339225000001,38.571027400000006],[-121.48330375,38.571231499999996],[-121.48311505000001,38.5711813],[-121.4828703,38.57125404999999],[-121.48283785000001,38.57132795],[-121.4826914,38.57134284999999],[-121.48264610000001,38.5714561],[-121.48264975000001,38.5716345],[-121.48292860000001,38.57193865],[-121.48264069999999,38.572164799999996],[-121.48246625,38.5720526],[-121.48238445,38.57209665],[-121.48218725000001,38.5720442],[-121.48194845,38.57198065],[-121.48189260000001,38.5719658],[-121.481707,38.5719164],[-121.48150405,38.57198245],[-121.48103565,38.572157700000005],[-121.48078845,38.57251425],[-121.48065925,38.572479900000005],[-121.48065105,38.5724777],[-121.48048945,38.5724319],[-121.4804635,38.57249215],[-121.4805793,38.5726114],[-121.48058750000001,38.5726136],[-121.480725,38.57266195],[-121.4808542,38.572696300000004],[-121.4809858,38.572731950000005],[-121.4813372,38.572825449999996],[-121.48124155,38.573069950000004],[-121.4811573,38.573101300000005],[-121.48084225,38.573018149999996],[-121.48071064999999,38.572982499999995],[-121.48057315,38.572934149999995],[-121.48048170000001,38.57290635],[-121.4803331,38.572863350000006],[-121.4801583,38.572817400000005],[-121.48012879999999,38.57280885],[-121.48009784999999,38.57280105],[-121.48002645,38.57282425],[-121.479648,38.5728905],[-121.47964185000001,38.5729046],[-121.47930955,38.57300615],[-121.47913539999999,38.573088049999996],[-121.47902934999999,38.57332435],[-121.47900175000001,38.573391799999996],[-121.47896015,38.57368725],[-121.47860779999999,38.573543900000004],[-121.4784478,38.57350135],[-121.47838415000001,38.5734844],[-121.47836545000001,38.573479500000005],[-121.47832295,38.57346805],[-121.47827075000001,38.5734542],[-121.4782305,38.5734434],[-121.4781721,38.57342825],[-121.47815689999999,38.57342415],[-121.47792204999999,38.573667650000004],[-121.4779171,38.57367895],[-121.4779027,38.57371125],[-121.477885,38.573751099999996],[-121.47788105000001,38.57376],[-121.47778679999999,38.573985300000004],[-121.4775897,38.5739326],[-121.4773978,38.57388125],[-121.47700075,38.57382895],[-121.47688535,38.573949150000004],[-121.4769044,38.574054700000005],[-121.4770334,38.57417135],[-121.47719269999999,38.574298299999995],[-121.47694709999999,38.57475875],[-121.47675319999999,38.5744033],[-121.476772,38.574359900000005],[-121.476625,38.574321499999996],[-121.476568,38.57430625],[-121.47636295000001,38.57427175],[-121.4763036,38.5742559],[-121.4761352,38.5743649],[-121.47611655,38.574408649999995],[-121.47609560000001,38.5744579],[-121.47595835,38.574774149999996],[-121.4761345,38.574821],[-121.4762013,38.57483875],[-121.47626385000001,38.57485560000001],[-121.47631290000001,38.57486865],[-121.476366,38.574883],[-121.4765814,38.57518875],[-121.476819,38.57545665],[-121.47690485,38.5754801],[-121.4769946,38.57550395],[-121.4771454,38.5755441],[-121.47704454999999,38.57577595],[-121.4770369,38.57579265],[-121.47689645,38.575792199999995],[-121.4767898,38.57581595],[-121.47678164999999,38.57583435],[-121.4767679,38.57586705],[-121.4767756,38.5761695],[-121.47634205,38.5763567],[-121.4762429,38.5765854],[-121.4756962,38.57643795],[-121.47563975,38.57642315],[-121.47558144999999,38.5764075],[-121.4755178,38.5763905],[-121.47545554999999,38.576373849999996],[-121.4749067,38.5762275],[-121.474811,38.5764518],[-121.47479129999999,38.5764978],[-121.47477144999999,38.576544049999995],[-121.47526155,38.5768262],[-121.47538109999999,38.576858349999995],[-121.4754193,38.5770743],[-121.4758678,38.57744725],[-121.4757679,38.5776756],[-121.4752183,38.5775308],[-121.4751579,38.57751424999999],[-121.47509885,38.57749724999999],[-121.4749803,38.57746349999999],[-121.47442534999999,38.5773155],[-121.474417,38.5776199],[-121.4743972,38.577666300000004],[-121.47437755,38.57771185],[-121.4747029,38.5781056],[-121.47476155,38.57812145],[-121.47482005,38.57813695],[-121.47493845,38.57816865],[-121.47537360000001,38.5785396],[-121.47527475000001,38.5787683],[-121.47517545,38.5789967],[-121.4751557,38.579042],[-121.4751364,38.5790866],[-121.47557265,38.57945865],[-121.4755962,38.5795132],[-121.4756357,38.579524],[-121.4756996,38.5795412],[-121.4757853,38.57961765],[-121.47582994999999,38.5796294],[-121.47591754999999,38.57990635],[-121.47581855,38.58013405],[-121.4759255,38.5802524],[-121.4760114,38.5805438],[-121.475971,38.580634599999996],[-121.4763926,38.58099905],[-121.476441,38.58101185],[-121.47649735,38.58102675000001],[-121.4766478,38.5810638],[-121.47669255,38.5810757],[-121.4771294,38.58144445],[-121.4770282,38.581676599999994],[-121.4769285,38.58190625],[-121.4769024,38.5819441],[-121.4768827,38.58198945],[-121.47686215,38.5820368],[-121.47730045,38.582402099999996],[-121.47735804999999,38.5824169],[-121.47747265000001,38.58247775],[-121.47760185,38.5827923],[-121.4778015,38.58309895],[-121.477972,38.5835017],[-121.47792675,38.5836002],[-121.4781394,38.583912],[-121.47819835,38.58392685],[-121.4782562,38.5839421],[-121.47831725,38.5839582],[-121.47865865,38.583997100000005],[-121.47883525,38.584394],[-121.47882375,38.58504695],[-121.47829545,38.5854016],[-121.47929205,38.5869598],[-121.47950455,38.58701565],[-121.48023045,38.5883137],[-121.48020195000001,38.5883788],[-121.48023814999999,38.588387850000004],[-121.4808323,38.58824625],[-121.48096319999999,38.588181250000005],[-121.48135070000001,38.5880743],[-121.48137919999999,38.5880092],[-121.48152354999999,38.58766755],[-121.48171260000001,38.58729225],[-121.48182365,38.58713095],[-121.48193309999999,38.58705995],[-121.48206694999999,38.5870427],[-121.4825739,38.58725045],[-121.4828669,38.58732995],[-121.48332995,38.58737375],[-121.48366265,38.587461149999996],[-121.48380315,38.5875054],[-121.48401005,38.58762995],[-121.4840442,38.58765805],[-121.4841199,38.5876777],[-121.4841263,38.58769685],[-121.48459815000001,38.587818999999996],[-121.48441095,38.58847685],[-121.48414815000001,38.588485649999996],[-121.48399145,38.5888565],[-121.4837859,38.5893229],[-121.48379919999999,38.5898798],[-121.48318005,38.589714799999996],[-121.48301169999999,38.5896709],[-121.48279665,38.589557299999996],[-121.48278585,38.58958175],[-121.48266939999999,38.58949885],[-121.4825765,38.58944685],[-121.48250815,38.5894816],[-121.48236779999999,38.58925105],[-121.48215995000001,38.589208049999996],[-121.48212935000001,38.58920005],[-121.48224859999999,38.590088300000005],[-121.48227485,38.59015445],[-121.48258335,38.5904237],[-121.48292365,38.59057205],[-121.4833928,38.5911623],[-121.48308795,38.5913147],[-121.48326665,38.5918878],[-121.48328515,38.5919133],[-121.48328985,38.5919198],[-121.48332095,38.591962300000006],[-121.4830869,38.592087],[-121.48271645,38.59229105],[-121.4830479,38.5923551],[-121.48325785,38.592258099999995],[-121.48349189999999,38.5921334],[-121.4837339,38.59223435],[-121.48397729999999,38.59211485],[-121.4842462,38.592050900000004],[-121.48455095,38.59245695],[-121.48504335,38.592638699999995],[-121.48499229999999,38.592868249999995],[-121.48498054999999,38.5930714],[-121.4849105,38.59305285],[-121.4848542,38.593179899999996],[-121.48440865,38.5932223],[-121.4846854,38.593568250000004],[-121.4847245,38.59363755],[-121.48488275,38.5935689],[-121.48561505,38.5935697],[-121.485611,38.5933902],[-121.48537765,38.59318945],[-121.48538905000001,38.593161949999995],[-121.4852315,38.5930778],[-121.4851882,38.59306545],[-121.48519995,38.5928623],[-121.48528525,38.59285235],[-121.48550705,38.5929111],[-121.4856646,38.59299525],[-121.48589795,38.593196000000006],[-121.4860089,38.59314035],[-121.4860654,38.59299035],[-121.48636404999999,38.59263115],[-121.4865341,38.59281155],[-121.48688505000001,38.5927502],[-121.48694280000001,38.5926186],[-121.48693105000001,38.592152049999996],[-121.48695555,38.5918451],[-121.48708635,38.591756000000004],[-121.48774455,38.59201109999999],[-121.48769515000001,38.59212585],[-121.4882767,38.5922714],[-121.48840465,38.592256],[-121.48845405,38.59214125],[-121.48856405000001,38.592174650000004],[-121.48861894999999,38.59219075],[-121.48875285,38.5922453],[-121.48874265,38.59178435],[-121.48863265,38.59175095],[-121.48878830000001,38.591389449999994],[-121.4888328,38.5914016],[-121.4896515,38.59152965],[-121.49009964999999,38.59006755],[-121.4907193,38.58973665],[-121.49088605,38.589613549999996],[-121.4910166,38.58953115],[-121.4918543,38.5895524],[-121.49282625000001,38.59052095],[-121.4928426,38.590595949999994],[-121.49396165,38.5905152],[-121.4940898,38.59046015],[-121.49457484999999,38.5905841],[-121.49461475000001,38.590557649999994],[-121.49478575,38.58996605],[-121.49481935,38.58976305],[-121.4948416,38.589717050000004],[-121.49536384999999,38.5898665],[-121.49543065,38.589881950000006],[-121.4954634,38.589864750000004],[-121.49550445,38.5898741],[-121.49557485,38.5898885],[-121.49558275000001,38.5898159],[-121.4955994,38.589815099999996],[-121.49565805,38.5895352],[-121.4958438,38.5893874],[-121.4962869,38.589531550000004],[-121.49631445,38.5895208],[-121.49639245,38.5889267],[-121.49640665000001,38.588891700000005],[-121.4964192,38.5888674],[-121.49640930000001,38.588839750000005],[-121.49655165,38.58852215],[-121.4965744,38.58851065],[-121.4970613,38.5888092],[-121.49703295,38.5889297],[-121.49695495,38.5895238],[-121.49744670000001,38.58956015],[-121.497521,38.58959075],[-121.49760385,38.5895713],[-121.49785105000001,38.5895836],[-121.4982933,38.58900145],[-121.4980237,38.588591],[-121.49800905000001,38.58856885],[-121.49801395,38.5882089],[-121.49801775,38.58808965],[-121.4976964,38.58763185],[-121.49768035,38.58763075],[-121.4975968,38.5876296],[-121.4975857,38.58762955],[-121.4973091,38.5875117],[-121.49713055000001,38.587661600000004],[-121.49667765000001,38.5876046],[-121.496689,38.5873869],[-121.49669134999999,38.5873199],[-121.4967343,38.587278850000004],[-121.4967761,38.58709735],[-121.49669639999999,38.586985],[-121.4967672,38.5868901],[-121.49681595,38.5867633],[-121.49688585,38.5867754],[-121.4972942,38.5867281],[-121.49736105,38.586747599999995],[-121.49763765,38.586865450000005],[-121.49785245000001,38.58676605],[-121.49826915,38.58652135],[-121.4986761,38.5866622],[-121.49884205000001,38.58683739999999],[-121.4987467,38.587539899999996],[-121.4996,38.5872118],[-121.49930745,38.5867803],[-121.49937635,38.586723899999996],[-121.49935815,38.586702349999996],[-121.49941455,38.5865679],[-121.49945439999999,38.58647555],[-121.49970139999999,38.58653045],[-121.49999395,38.58696195],[-121.50003394999999,38.5868684],[-121.5016388,38.586556099999996],[-121.50396185,38.5869687],[-121.50402965,38.586006],[-121.5045731,38.58606075],[-121.50486885000001,38.5862354],[-121.5050607,38.58611205],[-121.5051967,38.58606895],[-121.5052422,38.5859526],[-121.50527495,38.585872800000004],[-121.50526355,38.58576225],[-121.5051789,38.58573265],[-121.50511545,38.585647800000004],[-121.50511,38.5856092],[-121.5054832,38.585340599999995],[-121.5056807,38.5855891],[-121.5062793,38.5857479],[-121.50630655,38.58559915],[-121.50589105,38.5842942],[-121.50576774999999,38.5844108],[-121.50562790000001,38.5843955],[-121.50560555,38.58392255],[-121.50572925,38.5837937],[-121.50577735,38.58365295],[-121.50581654999999,38.5836045],[-121.50583455,38.58353925],[-121.50589255,38.5829856],[-121.50578304999999,38.5829598],[-121.50574639999999,38.5829504],[-121.50571115,38.582941500000004],[-121.50568949999999,38.5829357],[-121.5055974,38.582913250000004],[-121.50551855,38.58239175],[-121.50552540000001,38.5823737],[-121.50555995,38.5822879],[-121.50580465,38.5823992],[-121.50581944999999,38.58242305],[-121.5058765,38.5824384],[-121.50591175,38.5824473],[-121.5059484,38.582456699999994],[-121.5059934,38.5824686],[-121.50604955,38.58250225],[-121.50615905000001,38.58252805],[-121.5061838,38.5825148],[-121.50619950000001,38.582472550000006]]]},"properties":{"bucket":2,"copyrights":["GraphHopper","OpenStreetMap contributors"]}}]}